{
    "links": {
        "self": "http://www.neowsapp.com/rest/v1/neo/3942367?api_key=iIulBulltgU6a56xZRHN4H3l9WmuAYTsLGpBGhQ2"
    },
    "id": "3942367",
    "neo_reference_id": "3942367",
    "name": "(2019 YP)",
    "designation": "2019 YP",
    "nasa_jpl_url": "http://ssd.jpl.nasa.gov/sbdb.cgi?sstr=3942367",
    "absolute_magnitude_h": 25.1,
    "estimated_diameter": {
        "kilometers": {
            "estimated_diameter_min": 0.0253837029,
            "estimated_diameter_max": 0.0567596853
        },
        "meters": {
            "estimated_diameter_min": 25.3837029364,
            "estimated_diameter_max": 56.7596852866
        },
        "miles": {
            "estimated_diameter_min": 0.0157726969,
            "estimated_diameter_max": 0.0352688224
        },
        "feet": {
            "estimated_diameter_min": 83.279867942,
            "estimated_diameter_max": 186.2194458756
        }
    },
    "is_potentially_hazardous_asteroid": false,
    "close_approach_data": [
        {
            "close_approach_date": "2015-12-14",
            "close_approach_date_full": "2015-Dec-14 06:55",
            "epoch_date_close_approach": 1450076100000,
            "relative_velocity": {
                "kilometers_per_second": "17.7138809899",
                "kilometers_per_hour": "63769.9715634816",
                "miles_per_hour": "39624.1803862089"
            },
            "miss_distance": {
                "astronomical": "0.302352566",
                "lunar": "117.615148174",
                "kilometers": "45231299.86263442",
                "miles": "28105426.468698196"
            },
            "orbiting_body": "Earth"
        },
        {
            "close_approach_date": "2019-12-21",
            "close_approach_date_full": "2019-Dec-21 16:32",
            "epoch_date_close_approach": 1576945920000,
            "relative_velocity": {
                "kilometers_per_second": "12.7045768569",
                "kilometers_per_hour": "45736.4766849599",
                "miles_per_hour": "28418.8679712741"
            },
            "miss_distance": {
                "astronomical": "0.0837062365",
                "lunar": "32.5617259985",
                "kilometers": "12522274.686116255",
                "miles": "7780980.681084119"
            },
            "orbiting_body": "Earth"
        },
        {
            "close_approach_date": "2020-05-29",
            "close_approach_date_full": "2020-May-29 08:33",
            "epoch_date_close_approach": 1590741180000,
            "relative_velocity": {
                "kilometers_per_second": "12.5185959542",
                "kilometers_per_hour": "45066.9454350091",
                "miles_per_hour": "28002.8472898811"
            },
            "miss_distance": {
                "astronomical": "0.2504860251",
                "lunar": "97.4390637639",
                "kilometers": "37472175.819726537",
                "miles": "23284130.3549067306"
            },
            "orbiting_body": "Earth"
        },
        {
            "close_approach_date": "2024-05-23",
            "close_approach_date_full": "2024-May-23 05:12",
            "epoch_date_close_approach": 1716441120000,
            "relative_velocity": {
                "kilometers_per_second": "16.27816713",
                "kilometers_per_hour": "58601.4016679824",
                "miles_per_hour": "36412.632053086"
            },
            "miss_distance": {
                "astronomical": "0.3959914946",
                "lunar": "154.0406913994",
                "kilometers": "59239484.130276502",
                "miles": "36809708.5496876476"
            },
            "orbiting_body": "Earth"
        }
    ],
    "orbital_data": {
        "orbit_id": "5",
        "orbit_determination_date": "2020-09-11 07:45:54",
        "first_observation_date": "2019-12-17",
        "last_observation_date": "2019-12-27",
        "data_arc_in_days": 10,
        "observations_used": 24,
        "orbit_uncertainty": "8",
        "minimum_orbit_intersection": ".0767118",
        "jupiter_tisserand_invariant": "5.131",
        "epoch_osculation": "2458838.5",
        "eccentricity": ".2011835891962148",
        "semi_major_axis": "1.2219961517618",
        "inclination": "23.18042496941932",
        "ascending_node_longitude": "265.0844612942507",
        "orbital_period": "493.4045888216236",
        "perihelion_distance": ".9761505799663983",
        "perihelion_argument": "240.4511598774698",
        "aphelion_distance": "1.467841723557201",
        "perihelion_time": "2458893.859571265043",
        "mean_anomaly": "319.6083090694148",
        "mean_motion": ".7296243451236886",
        "equinox": "J2000",
        "orbit_class": {
            "orbit_class_type": "APO",
            "orbit_class_description": "Near-Earth asteroid orbits which cross the Earth’s orbit similar to that of 1862 Apollo",
            "orbit_class_range": "a (semi-major axis) > 1.0 AU; q (perihelion) < 1.017 AU"
        }
    },
    "is_sentry_object": false
}